0 GORIZONT 33
1 26372U 00029A   13282.34527528 -.00000294  00000-0  00000+0 0  1271
2 26372 010.0261 046.6139 0003514 071.3435 335.4185 01.00343433 48953
0 GORIZONT 33
1 26372U 00029A   13283.21248451  .00000000  00000-0  10000-3 0  1294
2 26372 010.0259 046.6000 0003471 065.9006 294.1506 01.00339111 48969
0 GORIZONT 33
1 26372U 00029A   13284.36957898 -.00000298  00000-0  00000+0 0  1287
2 26372 010.0297 046.5908 0003397 072.4953 345.5443 01.00342917 48978
0 GORIZONT 33
1 26372U 00029A   13287.16086956 -.00000300  00000-0  00000+0 0  1291
2 26372 010.0345 046.5587 0003231 072.7179 273.6668 01.00342163 49003
0 GORIZONT 33
1 26372U 00029A   13290.21232187 -.00000298  00000-0  00000+0 0  1308
2 26372 010.0396 046.5232 0003115 070.8278 297.8803 01.00341184 49030
0 GORIZONT 33
1 26372U 00029A   13295.05643424 -.00000289  00000-0  00000+0 0  1316
2 26372 010.0479 046.4675 0003082 066.5826 252.0245 01.00339175 49081
